{
  "type": "FeatureCollection",
  "features": [
    {
      "type": "Feature",
      "properties": {
        "norad_id": 30680,
        "name": "FENGYUN 1C DEB",
        "group": "fengyun-1c-debris",
        "lat": 60.8405403753615,
        "lon": 6.8667158946873394,
        "alt_km": 1153.5099588853345,
        "timestamp": "2025-12-07T20:38:14.341821+00:00",
        "meta_object_name": "FENGYUN 1C DEB",
        "meta_object_id": "1999-025AQN",
        "meta_epoch": "2025-12-06T15:58:49.336320",
        "meta_mean_motion": 13.56030211,
        "meta_eccentricity": 0.03413764,
        "meta_inclination": 99.6277,
        "meta_ra_of_asc_node": 23.4093,
        "meta_arg_of_pericenter": 182.7077,
        "meta_mean_anomaly": 177.2221,
        "meta_ephemeris_type": 0,
        "meta_classification_type": "U",
        "meta_norad_cat_id": 30680,
        "meta_element_set_no": 999,
        "meta_rev_at_epoch": 92171,
        "meta_bstar": 0.0065202258,
        "meta_mean_motion_dot": 6.606e-05,
        "meta_mean_motion_ddot": 0,
        "tle_line1": "1 30680U 99025AQN 25340.66584880  .00006606  00000+0  65202-2 0  9995",
        "tle_line2": "2 30680  99.6277  23.4093 0341376 182.7077 177.2221 13.56030211921710"
      },
      "geometry": {
        "type": "Point",
        "coordinates": [
          6.8667158946873394,
          60.8405403753615
        ]
      }
    },
    {
      "type": "Feature",
      "properties": {
        "norad_id": 30683,
        "name": "FENGYUN 1C DEB",
        "group": "fengyun-1c-debris",
        "lat": -39.29691210030738,
        "lon": 1.0157822066544198,
        "alt_km": 883.9159454535557,
        "timestamp": "2025-12-07T20:38:14.341831+00:00",
        "meta_object_name": "FENGYUN 1C DEB",
        "meta_object_id": "1999-025AQR",
        "meta_epoch": "2025-12-07T00:23:02.006016",
        "meta_mean_motion": 14.00353675,
        "meta_eccentricity": 0.01383451,
        "meta_inclination": 99.4286,
        "meta_ra_of_asc_node": 352.3299,
        "meta_arg_of_pericenter": 240.2586,
        "meta_mean_anomaly": 146.3249,
        "meta_ephemeris_type": 0,
        "meta_classification_type": "U",
        "meta_norad_cat_id": 30683,
        "meta_element_set_no": 999,
        "meta_rev_at_epoch": 95471,
        "meta_bstar": 0.0020523712,
        "meta_mean_motion_dot": 3.254e-05,
        "meta_mean_motion_ddot": 0,
        "tle_line1": "1 30683U 99025AQR 25341.01599544  .00003254  00000+0  20524-2 0  9995",
        "tle_line2": "2 30683  99.4286 352.3299 0138345 240.2586 146.3249 14.00353675954713"
      },
      "geometry": {
        "type": "Point",
        "coordinates": [
          1.0157822066544198,
          -39.29691210030738
        ]
      }
    },
    {
      "type": "Feature",
      "properties": {
        "norad_id": 30684,
        "name": "FENGYUN 1C DEB",
        "group": "fengyun-1c-debris",
        "lat": 4.260754181990853,
        "lon": 22.601202530141727,
        "alt_km": 987.1173502824586,
        "timestamp": "2025-12-07T20:38:14.341841+00:00",
        "meta_object_name": "FENGYUN 1C DEB",
        "meta_object_id": "1999-025AQS",
        "meta_epoch": "2025-12-07T01:17:27.902688",
        "meta_mean_motion": 13.66787669,
        "meta_eccentricity": 0.02343874,
        "meta_inclination": 99.5307,
        "meta_ra_of_asc_node": 22.524,
        "meta_arg_of_pericenter": 283.8902,
        "meta_mean_anomaly": 73.6272,
        "meta_ephemeris_type": 0,
        "meta_classification_type": "U",
        "meta_norad_cat_id": 30684,
        "meta_element_set_no": 999,
        "meta_rev_at_epoch": 93551,
        "meta_bstar": 0.0013219626,
        "meta_mean_motion_dot": 1.285e-05,
        "meta_mean_motion_ddot": 0,
        "tle_line1": "1 30684U 99025AQS 25341.05379517  .00001285  00000+0  13220-2 0  9993",
        "tle_line2": "2 30684  99.5307  22.5240 0234387 283.8902  73.6272 13.66787669935519"
      },
      "geometry": {
        "type": "Point",
        "coordinates": [
          22.601202530141727,
          4.260754181990853
        ]
      }
    },
    {
      "type": "Feature",
      "properties": {
        "norad_id": 30686,
        "name": "FENGYUN 1C DEB",
        "group": "fengyun-1c-debris",
        "lat": -45.84131362966344,
        "lon": -14.225869878042063,
        "alt_km": 655.4991770377101,
        "timestamp": "2025-12-07T20:38:14.341851+00:00",
        "meta_object_name": "FENGYUN 1C DEB",
        "meta_object_id": "1999-025AQU",
        "meta_epoch": "2025-12-07T00:44:57.065856",
        "meta_mean_motion": 14.73787531,
        "meta_eccentricity": 0.01441501,
        "meta_inclination": 99.0327,
        "meta_ra_of_asc_node": 174.2803,
        "meta_arg_of_pericenter": 138.3578,
        "meta_mean_anomaly": 12.4127,
        "meta_ephemeris_type": 0,
        "meta_classification_type": "U",
        "meta_norad_cat_id": 30686,
        "meta_element_set_no": 999,
        "meta_rev_at_epoch": 99517,
        "meta_bstar": 0.0012480241,
        "meta_mean_motion_dot": 9.585e-05,
        "meta_mean_motion_ddot": 0,
        "tle_line1": "1 30686U 99025AQU 25341.03121604  .00009585  00000+0  12480-2 0  9993",
        "tle_line2": "2 30686  99.0327 174.2803 0144150 138.3578  12.4127 14.73787531995174"
      },
      "geometry": {
        "type": "Point",
        "coordinates": [
          -14.225869878042063,
          -45.84131362966344
        ]
      }
    },
    {
      "type": "Feature",
      "properties": {
        "norad_id": 30688,
        "name": "FENGYUN 1C DEB",
        "group": "fengyun-1c-debris",
        "lat": -2.9241147367615032,
        "lon": -125.23174995100246,
        "alt_km": 795.3805942907957,
        "timestamp": "2025-12-07T20:38:14.341861+00:00",
        "meta_object_name": "FENGYUN 1C DEB",
        "meta_object_id": "1999-025AQW",
        "meta_epoch": "2025-12-07T04:49:00.358176",
        "meta_mean_motion": 14.32625994,
        "meta_eccentricity": 0.00148796,
        "meta_inclination": 98.7008,
        "meta_ra_of_asc_node": 54.5549,
        "meta_arg_of_pericenter": 333.8705,
        "meta_mean_anomaly": 51.2446,
        "meta_ephemeris_type": 0,
        "meta_classification_type": "U",
        "meta_norad_cat_id": 30688,
        "meta_element_set_no": 999,
        "meta_rev_at_epoch": 97181,
        "meta_bstar": 0.0026089393,
        "meta_mean_motion_dot": 7.058e-05,
        "meta_mean_motion_ddot": 0,
        "tle_line1": "1 30688U 99025AQW 25341.20069859  .00007058  00000+0  26089-2 0  9990",
        "tle_line2": "2 30688  98.7008  54.5549 0014879 333.8705  51.2446 14.32625994971812"
      },
      "geometry": {
        "type": "Point",
        "coordinates": [
          -125.23174995100246,
          -2.9241147367615032
        ]
      }
    },
    {
      "type": "Feature",
      "properties": {
        "norad_id": 30689,
        "name": "FENGYUN 1C DEB",
        "group": "fengyun-1c-debris",
        "lat": -6.031567035435319,
        "lon": 147.30881990272934,
        "alt_km": 827.2284714628377,
        "timestamp": "2025-12-07T20:38:14.341871+00:00",
        "meta_object_name": "FENGYUN 1C DEB",
        "meta_object_id": "1999-025AQX",
        "meta_epoch": "2025-12-06T21:57:28.931616",
        "meta_mean_motion": 14.11754712,
        "meta_eccentricity": 0.01116317,
        "meta_inclination": 98.7077,
        "meta_ra_of_asc_node": 327.3193,
        "meta_arg_of_pericenter": 119.7273,
        "meta_mean_anomaly": 305.1119,
        "meta_ephemeris_type": 0,
        "meta_classification_type": "U",
        "meta_norad_cat_id": 30689,
        "meta_element_set_no": 999,
        "meta_rev_at_epoch": 96808,
        "meta_bstar": 0.00058941378,
        "meta_mean_motion_dot": 1.097e-05,
        "meta_mean_motion_ddot": 0,
        "tle_line1": "1 30689U 99025AQX 25340.91491819  .00001097  00000+0  58941-3 0  9993",
        "tle_line2": "2 30689  98.7077 327.3193 0111631 119.7273 305.1119 14.11754712968081"
      },
      "geometry": {
        "type": "Point",
        "coordinates": [
          147.30881990272934,
          -6.031567035435319
        ]
      }
    },
    {
      "type": "Feature",
      "properties": {
        "norad_id": 30690,
        "name": "FENGYUN 1C DEB",
        "group": "fengyun-1c-debris",
        "lat": 35.85810003618361,
        "lon": -94.46437717625109,
        "alt_km": 836.8301764104199,
        "timestamp": "2025-12-07T20:38:14.341880+00:00",
        "meta_object_name": "FENGYUN 1C DEB",
        "meta_object_id": "1999-025AQY",
        "meta_epoch": "2025-12-07T02:12:10.018368",
        "meta_mean_motion": 14.02291865,
        "meta_eccentricity": 0.01047273,
        "meta_inclination": 99.1594,
        "meta_ra_of_asc_node": 271.4603,
        "meta_arg_of_pericenter": 91.4272,
        "meta_mean_anomaly": 30.5323,
        "meta_ephemeris_type": 0,
        "meta_classification_type": "U",
        "meta_norad_cat_id": 30690,
        "meta_element_set_no": 999,
        "meta_rev_at_epoch": 95628,
        "meta_bstar": 0.001886968,
        "meta_mean_motion_dot": 2.992e-05,
        "meta_mean_motion_ddot": 0,
        "tle_line1": "1 30690U 99025AQY 25341.09178262  .00002992  00000+0  18870-2 0  9990",
        "tle_line2": "2 30690  99.1594 271.4603 0104727  91.4272  30.5323 14.02291865956280"
      },
      "geometry": {
        "type": "Point",
        "coordinates": [
          -94.46437717625109,
          35.85810003618361
        ]
      }
    }
  ]
}